{"type":"Topology","arcs":[[[1578,1605],[-17,-18],[-40,2],[-39,-5],[-18,-39],[-10,-97],[50,-55],[25,-56],[-108,-9],[-122,4],[-93,-34],[-111,4],[-18,55],[0,33],[22,45],[34,88],[22,50],[-13,56],[-30,22],[49,114],[0,0],[231,-83],[150,-44],[36,-33]],[[1073,1269],[-44,-85],[-86,-156],[-1,-57],[-11,-56],[-89,-43],[-50,-20],[17,131],[30,110],[54,97],[161,322],[21,63],[16,36],[34,-10],[4,-50],[-44,-83],[-30,-67],[-5,-61],[23,-71]],[[426,571],[53,19],[44,24],[46,26],[23,-4],[12,-18],[5,-27],[-10,-17],[9,-46],[35,-37],[26,-51],[-163,-205],[-106,-93],[-20,8],[-28,0],[-51,-31],[-56,-32],[-42,-36],[-56,-8],[-64,-31],[-50,-12],[-26,8],[-7,26],[16,24],[30,17],[1,44],[-9,50],[30,38],[47,22],[39,30],[19,41],[12,65],[12,118],[8,66],[32,39],[38,26],[58,-26],[93,-17]],[[1678,1207],[146,-108],[0,-128],[-69,-22],[14,-68],[-2,-232],[-59,-61],[-91,-60],[-32,24],[-58,39],[-58,32],[-47,14],[-74,-22]],[[1348,615],[-14,86],[-62,129],[-75,-50],[-84,113],[-26,81],[-93,65]],[[994,1039],[90,128],[72,66],[72,-37],[57,10],[31,-26],[127,90],[148,-22],[72,-90],[15,49]],[[1681,367],[-53,18],[-149,-26],[-284,-124],[-142,-54],[-1,58],[299,108],[204,83],[46,44],[25,34],[77,-28],[26,-73],[-48,-40]],[[1348,615],[-58,-15],[-28,-17],[-20,-19],[-28,-35],[-5,-39],[31,-60],[20,-78],[-48,-22],[-19,27],[-47,2],[-50,0],[-19,-25],[-32,-14],[-156,-22],[-53,5],[-26,37],[37,17],[9,27],[-23,33],[-85,35],[-33,61],[14,81],[40,44],[37,66],[-9,56],[4,5],[42,48],[14,25],[24,16],[34,21],[37,17],[34,68],[8,79]]],"transform":{"scale":[0.0002978312395832897,0.00023461104980980775],"translate":[-74.25294418099992,40.49943456200003]},"objects":{"ne_10m_admin_2_counties":{"type":"GeometryCollection","geometries":[{"arcs":[[0]],"type":"Polygon","properties":{"FEATURECLA":"Admin-2 scale rank","SCALERANK":0,"ADM2_CODE":"USA-36005","ISO_3166_2":"US-36","ISO_A2":"US","ADM0_SR":1,"NAME":"Bronx","NAME_ALT":"Bronx County","NAME_LOCAL":"","TYPE":"County","TYPE_EN":"County","CODE_LOCAL":"36005","REGION":"NY","REGION_COD":"36","ABBREV":"","AREA_SQKM":96,"SAMEASCITY":1,"LABELRANK":0,"NAME_LEN":5,"MAPCOLOR9":1,"MAPCOLOR13":1,"FIPS":"US36005","SOV_A3":"US1","ADM0_A3":"USA","ADM0_LABEL":2,"ADMIN":"United States of America","GEONUNIT":"United States of America","GU_A3":"USA","MIN_LABEL":8,"MAX_LABEL":10,"MIN_ZOOM":6.6,"WIKIDATAID":"Q18426","NE_ID":1730096639,"latitude":40.856852,"longitude":-73.866193,"NAME_AR":"ذا برونكس","NAME_BN":"দ্য ব্রংক্স","NAME_DE":"Bronx","NAME_EL":"Μπρονξ","NAME_EN":"The Bronx","NAME_ES":"El Bronx","NAME_FA":"برانکس","NAME_FR":"Bronx","NAME_HE":"הברונקס","NAME_HI":"ब्रोंक्स","NAME_HU":"Bronx","NAME_ID":"Bronx","NAME_IT":"The Bronx","NAME_JA":"ブロンクス区","NAME_KO":"브롱크스","NAME_NL":"The Bronx","NAME_PL":"Bronx","NAME_PT":"Bronx","NAME_RU":"Бронкс","NAME_SV":"Bronx","NAME_TR":"Bronx","NAME_UK":"Бронкс","NAME_UR":"برونکس کاؤنٹی","NAME_VI":"The Bronx","NAME_ZH":"布朗克斯","NAME_ZHT":"布朗克斯"}},{"arcs":[[1]],"type":"Polygon","properties":{"FEATURECLA":"Admin-2 scale rank","SCALERANK":0,"ADM2_CODE":"USA-36061","ISO_3166_2":"US-36","ISO_A2":"US","ADM0_SR":1,"NAME":"New York","NAME_ALT":"New York County","NAME_LOCAL":"","TYPE":"County","TYPE_EN":"County","CODE_LOCAL":"36061","REGION":"NY","REGION_COD":"36","ABBREV":"","AREA_SQKM":49,"SAMEASCITY":1,"LABELRANK":0,"NAME_LEN":8,"MAPCOLOR9":1,"MAPCOLOR13":1,"FIPS":"US36061","SOV_A3":"US1","ADM0_A3":"USA","ADM0_LABEL":2,"ADMIN":"United States of America","GEONUNIT":"United States of America","GU_A3":"USA","MIN_LABEL":8,"MAX_LABEL":10,"MIN_ZOOM":6.6,"WIKIDATAID":"Q500416","NE_ID":1730096645,"latitude":40.775919,"longitude":-73.969166,"NAME_AR":"","NAME_BN":"","NAME_DE":"New York","NAME_EL":"","NAME_EN":"New York","NAME_ES":"Nueva York","NAME_FA":"","NAME_FR":"New York","NAME_HE":"","NAME_HI":"","NAME_HU":"","NAME_ID":"","NAME_IT":"New York","NAME_JA":"ニュー・ヨーク郡","NAME_KO":"","NAME_NL":"New York","NAME_PL":"","NAME_PT":"","NAME_RU":"Нью-Йорк","NAME_SV":"","NAME_TR":"","NAME_UK":"","NAME_UR":"","NAME_VI":"","NAME_ZH":"纽约县","NAME_ZHT":"纽约县"}},{"arcs":[[2]],"type":"Polygon","properties":{"FEATURECLA":"Admin-2 scale rank","SCALERANK":0,"ADM2_CODE":"USA-36085","ISO_3166_2":"US-36","ISO_A2":"US","ADM0_SR":1,"NAME":"Richmond","NAME_ALT":"Richmond County","NAME_LOCAL":"","TYPE":"County","TYPE_EN":"County","CODE_LOCAL":"36085","REGION":"NY","REGION_COD":"36","ABBREV":"","AREA_SQKM":140,"SAMEASCITY":1,"LABELRANK":0,"NAME_LEN":8,"MAPCOLOR9":1,"MAPCOLOR13":1,"FIPS":"US36085","SOV_A3":"US1","ADM0_A3":"USA","ADM0_LABEL":2,"ADMIN":"United States of America","GEONUNIT":"United States of America","GU_A3":"USA","MIN_LABEL":8,"MAX_LABEL":10,"MIN_ZOOM":6.6,"WIKIDATAID":"Q18432","NE_ID":1730093567,"latitude":40.585535,"longitude":-74.148752,"NAME_AR":"جزيرة ستاتن","NAME_BN":"স্ট্যাটেন আইল্যান্ড","NAME_DE":"Staten Island","NAME_EL":"Στάτεν Άιλαντ","NAME_EN":"Staten Island","NAME_ES":"Staten Island","NAME_FA":"استاتن آیلند","NAME_FR":"Staten Island","NAME_HE":"סטטן איילנד","NAME_HI":"","NAME_HU":"Staten Island","NAME_ID":"Staten Island","NAME_IT":"Staten Island","NAME_JA":"スタテンアイランド","NAME_KO":"스태튼아일랜드","NAME_NL":"Staten Island","NAME_PL":"Staten Island","NAME_PT":"Staten Island","NAME_RU":"Статен-Айленд","NAME_SV":"Staten Island","NAME_TR":"Staten Island","NAME_UK":"Стетен-Айленд","NAME_UR":"سٹیٹن جزیرہ، نیویارک","NAME_VI":"Đảo Staten","NAME_ZH":"史泰登岛","NAME_ZHT":"史泰登島"}},{"arcs":[[[3,4,5]],[[6]]],"type":"MultiPolygon","properties":{"FEATURECLA":"Admin-2 scale rank","SCALERANK":0,"ADM2_CODE":"USA-36081","ISO_3166_2":"US-36","ISO_A2":"US","ADM0_SR":1,"NAME":"Queens","NAME_ALT":"Queens County","NAME_LOCAL":"","TYPE":"County","TYPE_EN":"County","CODE_LOCAL":"36081","REGION":"NY","REGION_COD":"36","ABBREV":"","AREA_SQKM":280,"SAMEASCITY":1,"LABELRANK":0,"NAME_LEN":6,"MAPCOLOR9":1,"MAPCOLOR13":1,"FIPS":"US36081","SOV_A3":"US1","ADM0_A3":"USA","ADM0_LABEL":2,"ADMIN":"United States of America","GEONUNIT":"United States of America","GU_A3":"USA","MIN_LABEL":8,"MAX_LABEL":10,"MIN_ZOOM":6.6,"WIKIDATAID":"Q18424","NE_ID":1730096653,"latitude":40.718565,"longitude":-73.80646,"NAME_AR":"كوينز","NAME_BN":"কুইন্স","NAME_DE":"Queens","NAME_EL":"Κουίνς","NAME_EN":"Queens","NAME_ES":"Queens","NAME_FA":"کویینز","NAME_FR":"Queens","NAME_HE":"קווינס","NAME_HI":"क्वीनस","NAME_HU":"Queens","NAME_ID":"Queens","NAME_IT":"Queens","NAME_JA":"クイーンズ区","NAME_KO":"퀸스","NAME_NL":"Queens","NAME_PL":"Queens","NAME_PT":"Queens","NAME_RU":"Куинс","NAME_SV":"Queens","NAME_TR":"Queens","NAME_UK":"Квінз","NAME_UR":"کوئینز","NAME_VI":"Queens","NAME_ZH":"皇后區","NAME_ZHT":"皇后區"}},{"arcs":[[-5,7]],"type":"Polygon","properties":{"FEATURECLA":"Admin-2 scale rank","SCALERANK":0,"ADM2_CODE":"USA-36047","ISO_3166_2":"US-36","ISO_A2":"US","ADM0_SR":1,"NAME":"Kings","NAME_ALT":"Kings County","NAME_LOCAL":"","TYPE":"County","TYPE_EN":"County","CODE_LOCAL":"36047","REGION":"NY","REGION_COD":"36","ABBREV":"","AREA_SQKM":179,"SAMEASCITY":1,"LABELRANK":0,"NAME_LEN":5,"MAPCOLOR9":1,"MAPCOLOR13":1,"FIPS":"US36047","SOV_A3":"US1","ADM0_A3":"USA","ADM0_LABEL":2,"ADMIN":"United States of America","GEONUNIT":"United States of America","GU_A3":"USA","MIN_LABEL":8,"MAX_LABEL":10,"MIN_ZOOM":6.6,"WIKIDATAID":"Q18419","NE_ID":1730096643,"latitude":40.643605,"longitude":-73.949757,"NAME_AR":"بروكلين","NAME_BN":"ব্রুকলিন","NAME_DE":"Brooklyn","NAME_EL":"Μπρούκλιν","NAME_EN":"Brooklyn","NAME_ES":"Brooklyn","NAME_FA":"بروکلین","NAME_FR":"Brooklyn","NAME_HE":"ברוקלין","NAME_HI":"ब्रुकलीन","NAME_HU":"Brooklyn","NAME_ID":"Brooklyn","NAME_IT":"Brooklyn","NAME_JA":"ブルックリン区","NAME_KO":"브루클린","NAME_NL":"Brooklyn","NAME_PL":"Brooklyn","NAME_PT":"Brooklyn","NAME_RU":"Бруклин","NAME_SV":"Brooklyn","NAME_TR":"Brooklyn","NAME_UK":"Бруклін","NAME_UR":"بروکلن، نیویارک","NAME_VI":"Brooklyn","NAME_ZH":"布魯克林區","NAME_ZHT":"布魯克林區"}}]}}}